IRIDIUM 39              
1 25042U 97069D   25274.94019095  .00001560  00000+0  40251-3 0  9997
2 25042  86.3973 165.4110 0016349 316.0323  43.9579 14.49362364464429
IRIDIUM 38              
1 25043U 97069E   25274.83131804  .00001141  00000+0  36945-3 0  9999
2 25043  86.4029 188.3222 0004059  95.7562 264.4099 14.38217890461281
IRIDIUM 42              
1 25077U 97077A   25274.82933643  .00001119  00000+0  37525-3 0  9995
2 25077  86.4031 194.6163 0002839  95.4305 264.7216 14.36446316456509
IRIDIUM 44              
1 25078U 97077B   25274.98218798  .00001078  00000+0  33404-3 0  9996
2 25078  86.4033 176.2201 0003730  62.7288 297.4290 14.40341328459071
IRIDIUM 45              
1 25104U 97082A   25274.93980099  .00042160  00000+0  13586-2 0  9992
2 25104  86.3616 355.9130 0105393 290.6853  68.3120 15.26684659468307
IRIDIUM 24              
1 25105U 97082B   25274.81743484  .00001532  00000+0  45882-3 0  9998
2 25105  86.3933  35.0437 0013478  86.8197 273.4545 14.42218331458580
IRIDIUM 51              
1 25262U 98018A   25274.75825786  .00111899  00000+0  18515-2 0  9991
2 25262  86.3846   2.7649 0071482 197.5794 162.2991 15.48908027463463
IRIDIUM 57              
1 25273U 98019B   25274.93041261  .00000838  00000+0  28198-3 0  9991
2 25273  86.3903 100.5210 0002233  88.8861 271.2592 14.35965873440106
